[{"OBJECT_NAME":"STARLINK-6327","OBJECT_ID":"2023-065V","EPOCH":"2026-03-09T11:21:47.725920","MEAN_MOTION":15.03098168,"ECCENTRICITY":0.00017923,"INCLINATION":43.0026,"RA_OF_ASC_NODE":211.3856,"ARG_OF_PERICENTER":256.5644,"MEAN_ANOMALY":103.4999,"EPHEMERIS_TYPE":0,"CLASSIFICATION_TYPE":"U","NORAD_CAT_ID":56522,"ELEMENT_SET_NO":999,"REV_AT_EPOCH":15659,"BSTAR":0.0052820241,"MEAN_MOTION_DOT":0.00072978,"MEAN_MOTION_DDOT":0},{"OBJECT_NAME":"CZ-6A DEB","OBJECT_ID":"2024-140FB","EPOCH":"2026-03-09T14:48:01.661760","MEAN_MOTION":15.0628726,"ECCENTRICITY":0.0079054,"INCLINATION":89.1878,"RA_OF_ASC_NODE":293.0208,"ARG_OF_PERICENTER":138.3366,"MEAN_ANOMALY":222.3932,"EPHEMERIS_TYPE":0,"CLASSIFICATION_TYPE":"U","NORAD_CAT_ID":60776,"ELEMENT_SET_NO":999,"REV_AT_EPOCH":8515,"BSTAR":0.002571,"MEAN_MOTION_DOT":0.00040709,"MEAN_MOTION_DDOT":0}]
